NORAD_CAT_ID,OBJECT_NAME,OBJECT_TYPE,EPOCH,MEAN_MOTION,ECCENTRICITY,INCLINATION,RA_OF_ASC_NODE,ARG_OF_PERICENTER,MEAN_ANOMALY,BSTAR,MEAN_MOTION_DOT,MEAN_MOTION_DDOT,TLE_LINE0,TLE_LINE1,TLE_LINE2,SEMIMAJOR_AXIS,PERIOD,APOGEE,PERIGEE,DECAYED
54015.0,STARLINK-5055,PAYLOAD,2022-11-19 22:00:00,15.73211893,0.0002827,53.2151,229.1068,25.4515,278.5601,-0.00011918,-0.00017326,0.0,0 STARLINK-5055,1 54015U 22125BD  22323.91667824 -.00017326  00000-0 -11918-3 0  9996,2 54015  53.2151 229.1068 0002827  25.4515 278.5601 15.73211893  1306,6727.861,91.532,351.62800000000016,347.824,0.0
54015.0,STARLINK-5055,PAYLOAD,2022-11-20 06:00:00,15.732184599999998,0.0002962,53.2145,227.4582,23.464,9.4667,4.5932e-05,5.834e-05,0.0,0 STARLINK-5055,1 54015U 22125BD  22324.25001157  .00005834  00000-0  45932-4 0  9998,2 54015  53.2145 227.4582 0002962  23.4640   9.4667 15.73218460  7506,6727.843000000003,91.532,351.7,347.715,0.0
54015.0,STARLINK-5055,PAYLOAD,2022-11-20 14:00:01,15.73167603,0.0002532,53.2147,225.8067,23.0652,98.8251,0.0003526999999999,0.00049104,0.0,0 STARLINK-5055,1 54015U 22125BD  22324.58334491  .00049104  00000-0  35270-3 0  9995,2 54015  53.2147 225.8067 0002532  23.0652  98.8251 15.73167603  1305,6727.988,91.535,351.556,348.149,0.0
54015.0,STARLINK-5055,PAYLOAD,2022-11-20 22:00:00,15.73183209,0.0002623,53.2151,224.1585,20.4671,190.3405,-2.4435e-05,-4.048e-05,0.0,0 STARLINK-5055,1 54015U 22125BD  22324.91667824 -.00004048  00000-0 -24435-4 0  9993,2 54015  53.2151 224.1585 0002623  20.4671 190.3405 15.73183209  7619,6727.943,91.534,351.5730000000001,348.043,0.0
54015.0,STARLINK-5055,PAYLOAD,2022-11-21 14:00:01,15.7317559,0.0002433,53.2151,220.8582,16.4653,12.1859,0.00036367,0.00050677,0.0,0 STARLINK-5055,1 54015U 22125BD  22325.58334491  .00050677  00000-0  36367-3 0  9991,2 54015  53.2151 220.8582 0002433  16.4653  12.1859 15.73175590  1301,6727.965,91.535,351.467,348.1930000000001,0.0
54015.0,STARLINK-5055,PAYLOAD,2022-11-21 22:00:00,15.73211733,0.0002594,53.2149,219.2103,15.644,101.9159,0.00017199,0.00023599,0.0,0 STARLINK-5055,1 54015U 22125BD  22325.91667824  .00023599  00000-0  17199-3 0  9992,2 54015  53.2149 219.2103 0002594  15.6440 101.9159 15.73211733  1302,6727.861999999999,91.532,351.472,347.982,0.0
54015.0,STARLINK-5055,PAYLOAD,2022-11-22 06:00:02,15.73267452,0.0002645,53.2142,217.5613,13.8792,192.6901,-0.00044672,-0.00063042,0.0,0 STARLINK-5055,1 54015U 22125BD  22326.25002315 -.00063042  00000-0 -44672-3 0  9993,2 54015  53.2142 217.5613 0002645  13.8792 192.6901 15.73267452  7823,6727.703,91.529,351.347,347.788,0.0
54015.0,STARLINK-5055,PAYLOAD,2022-11-22 14:00:01,15.73196866,0.0002372,53.2143,215.9097,15.3192,280.235,-0.00013184,-0.00019083,0.0,0 STARLINK-5055,1 54015U 22125BD  22326.58335648 -.00019083  00000-0 -13184-3 0  9997,2 54015  53.2143 215.9097 0002372  15.3192 280.2350 15.73196866  1309,6727.904,91.533,351.365,348.173,0.0
54015.0,STARLINK-5055,PAYLOAD,2022-11-22 22:00:00,15.73213146,0.0002543,53.2145,214.2619,16.5215,7.8783,-0.00041838,-0.00058972,0.0,0 STARLINK-5055,1 54015U 22125BD  22326.91667824 -.00058972  00000-0 -41838-3 0  9995,2 54015  53.2145 214.2619 0002543  16.5215   7.8783 15.73213146  1306,6727.858,91.532,351.434,348.01199999999994,0.0
54015.0,STARLINK-5055,PAYLOAD,2022-11-23 06:00:00,15.73162078,0.0002601,53.2144,212.6128,11.897,101.422,0.00014558,0.00019827,0.0,0 STARLINK-5055,1 54015U 22125BD  22327.25001157  .00019827  00000-0  14558-3 0  9997,2 54015  53.2144 212.6128 0002601  11.8970 101.4220 15.73162078  7976,6728.003000000002,91.535,351.61800000000005,348.11800000000005,0.0
54015.0,STARLINK-5055,PAYLOAD,2022-11-23 14:00:01,15.73150158,0.0002388,53.2143,210.9615,13.9715,188.2365,0.00063271,0.00088937,0.0,0 STARLINK-5055,1 54015U 22125BD  22327.58334491  .00088937  00000-0  63271-3 0  9997,2 54015  53.2143 210.9615 0002388  13.9715 188.2365 15.73150158  1309,6728.0369999999975,91.536,351.509,348.296,0.0
54015.0,STARLINK-5055,PAYLOAD,2022-11-23 22:00:00,15.73216625,0.0002619,53.214,209.3138,16.3529,274.7575,4.0947e-05,5.133e-05,0.0,0 STARLINK-5055,1 54015U 22125BD  22327.91667824  .00005133  00000-0  40947-4 0  9996,2 54015  53.2140 209.3138 0002619  16.3529 274.7575 15.73216625  1301,6727.848000000001,91.532,351.475,347.951,0.0
54015.0,STARLINK-5055,PAYLOAD,2022-11-24 06:00:02,15.73225776,0.00027,53.2133,207.6643,18.299,1.8248,-0.00034264,-0.00048496,0.0,0 STARLINK-5055,1 54015U 22125BD  22328.25002315 -.00048496  00000-0 -34264-3 0  9997,2 54015  53.2133 207.6643 0002700  18.2990   1.8248 15.73225776  8130,6727.821999999999,91.532,351.50300000000016,347.87,0.0
54015.0,STARLINK-5055,PAYLOAD,2022-11-24 14:00:01,15.73175422,0.0002433,53.2133,206.0131,23.1609,85.8399,0.00058944,0.00082842,0.0,0 STARLINK-5055,1 54015U 22125BD  22328.58334491  .00082842  00000-0  58944-3 0  9998,2 54015  53.2133 206.0131 0002433  23.1609  85.8399 15.73175422  1303,6727.965,91.535,351.467,348.1930000000001,0.0
54015.0,STARLINK-5055,PAYLOAD,2022-11-24 22:00:00,15.73260747,0.00026,53.2134,204.3653,21.0276,176.9044,-0.00048781,-0.00068717,0.0,0 STARLINK-5055,1 54015U 22125BD  22328.91667824 -.00068717  00000-0 -48781-3 0  9999,2 54015  53.2134 204.3653 0002600  21.0276 176.9044 15.73260747  8241,6727.722,91.53,351.336,347.838,0.0
54015.0,STARLINK-5055,PAYLOAD,2022-11-25 14:00:01,15.7323844,0.0002497,53.2135,201.0642,21.6365,354.2121,-0.00015461,-0.00022302,0.0,0 STARLINK-5055,1 54015U 22125BD  22329.58334491 -.00022302  00000-0 -15461-3 0  9993,2 54015  53.2135 201.0642 0002497  21.6365 354.2121 15.73238440  8346,6727.786,91.531,351.331,347.971,0.0
54015.0,STARLINK-5055,PAYLOAD,2022-11-25 22:00:00,15.73198747,0.0002752,53.2131,199.4166,24.8546,79.9785,0.00019792,0.00027247,0.0,0 STARLINK-5055,1 54015U 22125BD  22329.91667824  .00027247  00000-0  19792-3 0  9991,2 54015  53.2131 199.4166 0002752  24.8546  79.9785 15.73198747  1304,6727.899,91.533,351.615,347.912,0.0
54015.0,STARLINK-5055,PAYLOAD,2022-11-26 06:00:00,15.73265105,0.000271,53.2125,197.7666,24.8332,168.9293,-0.00019368,-0.00027796,0.0,0 STARLINK-5055,1 54015U 22125BD  22330.25001157 -.00027796  00000-0 -19368-3 0  9991,2 54015  53.2125 197.7666 0002710  24.8332 168.9293 15.73265105  8459,6727.71,91.529,351.398,347.751,0.0
54015.0,STARLINK-5055,PAYLOAD,2022-11-26 14:00:01,15.73232508,0.0002472,53.2127,196.1153,27.1709,255.5848,-0.00034716,-0.00049135,0.0,0 STARLINK-5055,1 54015U 22125BD  22330.58334491 -.00049135  00000-0 -34716-3 0  9992,2 54015  53.2127 196.1153 0002472  27.1709 255.5848 15.73232508  1301,6727.802,91.531,351.331,348.004,0.0
54015.0,STARLINK-5055,PAYLOAD,2022-11-26 22:00:00,15.73207311,0.0002685,53.2129,194.4677,25.2498,346.4499,-0.00045665,-0.00064256,0.0,0 STARLINK-5055,1 54015U 22125BD  22330.91667824 -.00064256  00000-0 -45665-3 0  9994,2 54015  53.2129 194.4677 0002685  25.2498 346.4499 15.73207311  8555,6727.874,91.533,351.546,347.93300000000005,0.0
54015.0,STARLINK-5055,PAYLOAD,2022-11-27 14:00:01,15.7318952,0.0002421,53.2134,191.1667,25.1127,164.3791,0.00015881,0.00021716,0.0,0 STARLINK-5055,1 54015U 22125BD  22331.58334491  .00021716  00000-0  15881-3 0  9998,2 54015  53.2134 191.1667 0002421  25.1127 164.3791 15.73189520  8665,6727.925,91.534,351.4190000000001,348.161,0.0
54015.0,STARLINK-5055,PAYLOAD,2022-11-27 22:00:00,15.73236782,0.0002298,53.2149,189.5107,16.3537,262.0634,-0.0012955,-0.00178935,0.0,0 STARLINK-5055,1 54015U 22125BD  22331.91667824 -.00178935  00000-0 -12955-2 0  9990,2 54015  53.2149 189.5107 0002298  16.3537 262.0634 15.73236782  8711,6727.79,91.531,351.201,348.1090000000001,0.0
54015.0,STARLINK-5055,PAYLOAD,2022-11-28 06:00:00,15.73156652,0.0002031,53.2159,187.8535,343.5606,23.7692,-0.0039571,-0.00521978,0.0,0 STARLINK-5055,1 54015U 22125BD  22332.25001157 -.00521978  00000-0 -39571-2 0  9991,2 54015  53.2159 187.8535 0002031 343.5606  23.7692 15.73156652  8763,6728.019,91.536,351.25,348.517,0.0
54015.0,STARLINK-5055,PAYLOAD,2022-11-28 14:00:01,15.72788345,0.0003617,53.2162,186.2014,289.6634,166.3426,-0.006965,-0.00868108,0.0,0 STARLINK-5055,1 54015U 22125BD  22332.58334491 -.00868108  00000-0 -69650-2 0  9997,2 54015  53.2162 186.2014 0003617 289.6634 166.3426 15.72788345  8818,6729.069,91.557,353.36800000000005,348.5,0.0
54015.0,STARLINK-5055,PAYLOAD,2022-11-28 22:00:01,15.72174562,0.0005437,53.2167,184.5551,275.8395,268.2749,-0.0076528,-0.00923726,0.0,0 STARLINK-5055,1 54015U 22125BD  22332.91668981 -.00923726  00000-0 -76528-2 0  9998,2 54015  53.2167 184.5551 0005437 275.8395 268.2749 15.72174562  1300,6730.82,91.593,356.345,349.026,0.0
54015.0,STARLINK-5055,PAYLOAD,2022-11-29 06:00:00,15.71539664,0.0007093,53.2165,182.9084,271.358,359.9608,-0.0080784999999999,-0.00962366,0.0,0 STARLINK-5055,1 54015U 22125BD  22333.25001157 -.00962366  00000-0 -80785-2 0  9995,2 54015  53.2165 182.9084 0007093 271.3580 359.9608 15.71539664  8922,6732.6330000000025,91.63,359.273,349.723,0.0
54015.0,STARLINK-5055,PAYLOAD,2022-11-29 14:00:01,15.70812137,0.0006553,53.2167,181.2624,269.0516,88.8648,-0.0073203,-0.00842696,0.0,0 STARLINK-5055,1 54015U 22125BD  22333.58335648 -.00842696  00000-0 -73203-2 0  9996,2 54015  53.2167 181.2624 0006553 269.0516  88.8648 15.70812137  1304,6734.712,91.672,360.99,352.163,0.0
54015.0,STARLINK-5055,PAYLOAD,2022-11-29 22:00:00,15.70072236,0.000667,53.2171,179.6211,271.80400000000003,171.8017,-0.0064028,-0.00724716,0.0,0 STARLINK-5055,1 54015U 22125BD  22333.91667824 -.00724716  00000-0 -64028-2 0  9994,2 54015  53.2171 179.6211 0006670 271.8040 171.8017 15.70072236  9023,6736.8269999999975,91.716,363.186,354.199,0.0
54015.0,STARLINK-5055,PAYLOAD,2022-11-30 06:00:00,15.69561965,0.000492,53.2174,177.9757,270.2037,258.2664,-0.0084752999999999,-0.00930565,0.0,0 STARLINK-5055,1 54015U 22125BD  22334.25001157 -.00930565  00000-0 -84753-2 0  9991,2 54015  53.2174 177.9757 0004920 270.2037 258.2664 15.69561965  9081,6738.2869999999975,91.745,363.468,356.837,0.0
